{"type":"FeatureCollection","name":"dosou-osm-bicycle-routes","attribution":"© OpenStreetMap contributors","metadata":{"source":"Overpass API","query":"[out:json][timeout:90];\n(\n  relation[\"type\"=\"route\"][\"route\"=\"bicycle\"](42.89,141.21,43.19,141.6);\n);\n(._;>;);\nout geom;","bbox":{"south":42.89,"west":141.21,"north":43.19,"east":141.6},"display_bbox":{"south":42.89,"west":141.21,"north":43.19,"east":141.6},"fetched_at":"2026-05-02T03:42:26.154Z","osm_timestamp":"2026-05-02T03:40:34Z","relation_count":2,"relation_count_before_filter":2},"features":[{"type":"Feature","id":11267074,"properties":{"osm_relation_id":11267074,"alt_name":"札幌恵庭（北広島）自転車道路","cycle_network":"JP:prefectural","name":"北海道道1148号札幌恵庭自転車道線","network":"rcn","network:type":"rcn","ref":"1148","route":"bicycle","type":"route","wikidata":"Q11403153","wikipedia":"ja:北海道道1148号札幌恵庭自転車道線"},"geometry":{"type":"MultiLineString","coordinates":[[[141.382044,43.0538079],[141.3822138,43.0539972],[141.3823523,43.0541578],[141.3824296,43.0542293],[141.3826034,43.0543691],[141.3827536,43.0544808],[141.3829561,43.0546444],[141.3831009,43.0547375],[141.383231,43.0548326],[141.3833423,43.0549335],[141.383451,43.055008],[141.3836803,43.0551534],[141.3837882,43.0552314],[141.3838637,43.0552972],[141.383915,43.0553646],[141.3839521,43.0554303],[141.3840008,43.0555969],[141.3840907,43.0557096],[141.3842087,43.0557929],[141.3843669,43.0558801],[141.3845681,43.0560644],[141.3847156,43.056177],[141.3849262,43.0563309],[141.3852132,43.0565602],[141.3853473,43.0566494],[141.385535,43.056816],[141.3857738,43.056962],[141.3859494,43.0570982],[141.3861303,43.0572446],[141.38629,43.0573407],[141.3865213,43.0574878],[141.3867053,43.0576524],[141.3868307,43.057731],[141.3869572,43.0578135],[141.3871231,43.0579665],[141.3873196,43.0580934],[141.3874451,43.0581774],[141.3875318,43.0582628],[141.3876449,43.0583356],[141.3877158,43.0583748],[141.3878082,43.0584026],[141.3878876,43.0584043],[141.3879673,43.0583952],[141.3882878,43.0582039],[141.3883569,43.0581808],[141.3884275,43.0581726],[141.3885031,43.0581767],[141.3885955,43.0581867],[141.3887074,43.0582399],[141.3888821,43.0584164],[141.3890308,43.0585181],[141.3892104,43.0586173],[141.3893625,43.0587374],[141.3894331,43.0588307],[141.3895459,43.0589255],[141.3896106,43.0588824]],[[141.3934364,43.0445952],[141.3932562,43.0446577],[141.3907218,43.0456454],[141.3882739,43.0465747],[141.3879918,43.0466623],[141.3877256,43.0467298],[141.3875415,43.0467981],[141.3872882,43.0469166],[141.3864326,43.0472367],[141.3860463,43.0473836],[141.3858047,43.047481],[141.3855555,43.0475785],[141.3839592,43.0481853],[141.3836967,43.0483002],[141.383279,43.0484829],[141.3828005,43.0487056],[141.3825165,43.0488771],[141.3823991,43.0489505],[141.38217,43.0491402],[141.3820291,43.0492666],[141.381924,43.0493807],[141.3817596,43.0495667],[141.3815736,43.0498156],[141.3813837,43.0501348],[141.3813133,43.0502744],[141.3812665,43.0503878],[141.3812215,43.0505159],[141.3811886,43.0506379],[141.3811513,43.0508291],[141.3811219,43.0510457],[141.3811149,43.0512352],[141.3811181,43.0513176],[141.3811228,43.0514391],[141.3811556,43.0516667],[141.3812078,43.0518961],[141.3812875,43.0521276],[141.3815527,43.0526621],[141.3816557,43.0528759],[141.3817291,43.0529838],[141.3818266,43.0531005],[141.3821364,43.053441]],[[141.3954517,43.0438013],[141.3952544,43.043859],[141.3950017,43.0439207],[141.3949353,43.0439402],[141.3948599,43.0439664],[141.3947793,43.0440003],[141.3947246,43.0440275],[141.3944373,43.0441837],[141.3940657,43.0443843],[141.3940062,43.0444164],[141.3938769,43.0444659],[141.3936429,43.0445314],[141.3934364,43.0445952]],[[141.3994691,43.0422669],[141.3992324,43.0423573],[141.3985247,43.0426217],[141.3982902,43.0427406],[141.3981996,43.0427779],[141.3980913,43.0428198],[141.3979076,43.0428889],[141.3973178,43.0430886],[141.3954517,43.0438013]],[[141.3994691,43.0422669],[141.4000249,43.0420547],[141.4001451,43.0420087],[141.4008405,43.0417432]],[[141.4066667,43.0397026],[141.4063907,43.0398067],[141.4059142,43.0399865],[141.405375,43.04019],[141.4052359,43.0402037],[141.4051774,43.0402094],[141.4050277,43.0402241],[141.4049249,43.0402342],[141.4029076,43.0410077],[141.4020667,43.0413202],[141.4017981,43.041398],[141.4012631,43.0415818],[141.4009375,43.0417061],[141.4008405,43.0417432]],[[141.4066667,43.0397026],[141.4070426,43.039511],[141.4070675,43.039496],[141.4072416,43.0393912],[141.4073444,43.0392536]],[[141.4073444,43.0392536],[141.4069854,43.0393902],[141.4069469,43.0394049],[141.4068462,43.0395119],[141.4068358,43.0395229],[141.4066667,43.0397026]],[[141.4083813,43.0388599],[141.4079051,43.0390401],[141.4073781,43.0392407],[141.4073444,43.0392536]],[[141.4085059,43.0388128],[141.4083813,43.0388599]],[[141.4103495,43.038099],[141.4099046,43.0382835],[141.4089873,43.0386306],[141.4085193,43.0388077],[141.4085059,43.0388128]],[[141.4105363,43.0380271],[141.4103495,43.038099]],[[141.4117913,43.0375634],[141.4111455,43.0378002],[141.4111089,43.0378141],[141.4105363,43.0380271]],[[141.4117913,43.0375634],[141.4119717,43.0375594],[141.4122044,43.0374703],[141.4125195,43.0373496],[141.4128169,43.0372357],[141.413408,43.0370094],[141.4134714,43.0369192]],[[141.4134714,43.0369192],[141.4127848,43.0371793],[141.4121658,43.0374138],[141.4117913,43.0375634]],[[141.4152657,43.0362363],[141.4151378,43.0362853],[141.4149499,43.0363573],[141.4138196,43.0367874],[141.4134714,43.0369192]],[[141.4152657,43.0362363],[141.4154168,43.0362348],[141.4157263,43.0361291],[141.4161414,43.0359571],[141.4165602,43.0357945],[141.4166807,43.0357688],[141.4169402,43.0356685],[141.4170762,43.0355423]],[[141.4170762,43.0355423],[141.4160923,43.0359195],[141.4152657,43.0362363]],[[141.4183104,43.0350722],[141.4181709,43.0351253],[141.4177419,43.0352889],[141.4176208,43.035335],[141.4172306,43.0354835],[141.4170762,43.0355423]],[[141.4183104,43.0350722],[141.4186507,43.0350089],[141.4198146,43.0345591],[141.4200376,43.0344143]],[[141.4200376,43.0344143],[141.4193549,43.0346743],[141.4183104,43.0350722]],[[141.4231292,43.03324],[141.4231146,43.0332455],[141.4229782,43.0332972],[141.4227099,43.0333987],[141.4224535,43.0334959],[141.4216892,43.0337887],[141.4210598,43.0340265],[141.4208411,43.0341094],[141.4203278,43.0343038],[141.4200376,43.0344143]],[[141.4233805,43.0331448],[141.4231292,43.03324]],[[141.4239066,43.0329456],[141.4237545,43.0330032],[141.4235565,43.0330782],[141.4233805,43.0331448]],[[141.4239066,43.0329456],[141.4240187,43.032944],[141.4240807,43.0329311],[141.4244452,43.032794]],[[141.4244452,43.032794],[141.4248151,43.0326491],[141.4249531,43.0325495]],[[141.4249531,43.0325495],[141.4239659,43.0329232],[141.4239066,43.0329456]],[[141.4283526,43.0312588],[141.4266049,43.0319241],[141.4261407,43.0320999],[141.4259654,43.0321667],[141.4255432,43.0323261],[141.4249531,43.0325495]],[[141.4286789,43.0311206],[141.4283526,43.0312588]],[[141.435811,43.0283868],[141.4357541,43.028408],[141.4349169,43.0287289],[141.4347142,43.0288059],[141.4336198,43.0292208],[141.4319212,43.0298786],[141.431797,43.0299267],[141.4293598,43.0308548],[141.4289693,43.0310035],[141.4287845,43.0310755],[141.4286789,43.0311206]],[[141.435811,43.0283868],[141.4367341,43.0280349],[141.436742,43.0280319],[141.4368046,43.0280079],[141.437292,43.027815],[141.4376394,43.027686],[141.438325,43.0274226],[141.4385095,43.0273463]],[[141.4385095,43.0273463],[141.4387213,43.0272735],[141.4388327,43.0272308],[141.4393846,43.0270409],[141.439464,43.0270086],[141.4395149,43.0269879],[141.4402833,43.0266814],[141.4404806,43.0266077],[141.440575,43.0265723],[141.4418999,43.0260718],[141.4425206,43.0258666],[141.4430127,43.0257517],[141.4432027,43.0257096],[141.4432977,43.0257093]],[[141.4443015,43.0256796],[141.4432977,43.0257093]],[[141.4447863,43.0256641],[141.4443015,43.0256796]],[[141.4468429,43.0259814],[141.4459942,43.0258449],[141.445075,43.0256882],[141.4449026,43.0256622],[141.4447863,43.0256641]],[[141.4471259,43.0260265],[141.4468429,43.0259814]],[[141.4494581,43.0264516],[141.4492872,43.0264234],[141.4492281,43.026409],[141.4491258,43.0263967],[141.448874,43.026411],[141.4483698,43.0263192],[141.4482853,43.0262933],[141.44819,43.0262421],[141.4481415,43.0262116],[141.4471259,43.0260265]],[[141.4502188,43.0265833],[141.4494581,43.0264516]],[[141.4502746,43.0265927],[141.4502518,43.0265889],[141.4502188,43.0265833]],[[141.450488,43.0266315],[141.4502746,43.0265927]],[[141.4516391,43.0268414],[141.4515141,43.0268175],[141.4513719,43.02674],[141.4513267,43.0267249],[141.4509269,43.0266531],[141.4508784,43.0266488],[141.4508301,43.0266492],[141.4507811,43.0266531],[141.450693,43.0266604],[141.4506383,43.0266564],[141.450502,43.0266338],[141.450488,43.0266315]],[[141.4518105,43.0268682],[141.4516391,43.0268414]],[[141.4588663,43.0281264],[141.4587866,43.0281081],[141.458534,43.028061],[141.4582121,43.0279786],[141.4577521,43.0278953],[141.4568756,43.027739],[141.4555089,43.0275072],[141.4550122,43.0274203],[141.4544018,43.0273035],[141.4539319,43.0272185],[141.4534743,43.0271409],[141.4528456,43.0270212],[141.4521985,43.0268972],[141.4520318,43.0268741],[141.4518287,43.0268687],[141.4518105,43.0268682]],[[141.4595604,43.0282554],[141.4588663,43.0281264]],[[141.4618883,43.0286532],[141.4595604,43.0282554]],[[141.4623398,43.0287215],[141.4622781,43.0287122],[141.4618883,43.0286532]],[[141.4718733,43.0279254],[141.4714647,43.0281192],[141.470722,43.0283813],[141.4702961,43.0285073],[141.469806,43.0286044],[141.4693728,43.0286692],[141.4688282,43.0287222],[141.468169,43.0287418],[141.4669046,43.0287455],[141.4662817,43.0287491],[141.4657791,43.0287618],[141.4654264,43.0287675],[141.4647314,43.0287822],[141.4644259,43.0287826],[141.4639967,43.028787],[141.4638439,43.0287837],[141.4632655,43.0287764],[141.4627918,43.0287694],[141.462359,43.0287235],[141.4623398,43.0287215]],[[141.4723791,43.027644],[141.4718733,43.0279254]],[[141.4774511,43.0248525],[141.4774197,43.0248739],[141.4773881,43.0249182],[141.4773879,43.0249449],[141.4773964,43.0249753],[141.4774337,43.0250417],[141.4774397,43.0250986],[141.4774278,43.0251264],[141.4773626,43.0251673],[141.4772604,43.0252224],[141.4769839,43.0253774],[141.4763818,43.0256998],[141.4762392,43.025779],[141.4761902,43.0258011],[141.4750918,43.0264061],[141.4750399,43.0264189],[141.4748435,43.0263826],[141.4747244,43.0263603],[141.474383,43.026535],[141.4729593,43.0273232],[141.4727574,43.0274368],[141.4725729,43.0275454],[141.4723791,43.027644]],[[141.4775936,43.0247722],[141.4774511,43.0248525]],[[141.483912,43.01901],[141.4838359,43.019447],[141.483746,43.019775],[141.4835464,43.0201234],[141.4832909,43.020481],[141.4828989,43.020898],[141.482692,43.021057],[141.4817059,43.0222569],[141.481264,43.022666],[141.480481,43.0232007],[141.4799874,43.0235328],[141.4797899,43.0236497],[141.4794791,43.0237504],[141.4789701,43.0240225],[141.4788345,43.0240862],[141.478828,43.0241236],[141.4788411,43.0241719],[141.4788709,43.0242828],[141.4788658,43.0243114],[141.4788394,43.0243392],[141.4787459,43.0243959],[141.4787288,43.0244063],[141.4785804,43.0244943],[141.478461,43.0245507],[141.4783061,43.0246365],[141.4781065,43.024737],[141.4780342,43.0247834],[141.4779845,43.0247894],[141.4779369,43.0247803],[141.4777992,43.0247233],[141.4777645,43.0247131],[141.4777098,43.0247203],[141.4775936,43.0247722]],[[141.4840125,43.0183277],[141.483912,43.01901]],[[141.4857383,43.0146984],[141.4854286,43.0153691],[141.4853789,43.0154726],[141.4852714,43.0156778],[141.4851441,43.0159373],[141.484561,43.017058],[141.4843202,43.0175254],[141.484233,43.0177024],[141.4841883,43.0178019],[141.4841483,43.017896],[141.4841138,43.0179804],[141.4840968,43.0180274],[141.4840834,43.0180639],[141.4840514,43.0181727],[141.4840125,43.0183277]],[[141.4859856,43.014228],[141.4857383,43.0146984]],[[141.4867735,43.0132723],[141.4866128,43.013421],[141.4864198,43.0136218],[141.4862559,43.0138181],[141.4861736,43.0139267],[141.4861142,43.0140186],[141.4859856,43.014228]],[[141.4911235,43.0106798],[141.4910499,43.0107086],[141.4909235,43.0107737],[141.4908621,43.0108382],[141.4908338,43.0108798],[141.4908039,43.0109198],[141.4906699,43.0110898],[141.4905561,43.0112033],[141.4904488,43.011295],[141.4903475,43.0113779],[141.4901451,43.0114996],[141.4900323,43.0115604],[141.4899319,43.0116109],[141.4898225,43.0116672],[141.4895093,43.0118339],[141.4893549,43.0119106],[141.4890337,43.0120392],[141.4888182,43.0121313],[141.4881489,43.0124441],[141.48783,43.0125889],[141.4876336,43.0126853],[141.4875415,43.012736],[141.4874592,43.0127822],[141.4873539,43.0128509],[141.4871295,43.0130022],[141.4869115,43.0131576],[141.4867735,43.0132723]],[[141.4914482,43.0105564],[141.4911235,43.0106798]],[[141.5209721,42.9993952],[141.520945,42.9993889],[141.519467,42.9991279],[141.5186624,42.999049],[141.5184152,42.9990709],[141.518184,42.9990623],[141.5177764,42.9990575],[141.5169467,42.999103],[141.5154255,42.9994418],[141.5124699,43.000169],[141.5116572,43.0004196],[141.511337,43.000562],[141.509517,43.001469],[141.508692,43.001997],[141.508318,43.002188],[141.5074779,43.002544],[141.5072983,43.0026019],[141.5070652,43.002663],[141.506763,43.002715],[141.506046,43.0028249],[141.5040956,43.0032405],[141.502147,43.003766],[141.501507,43.004051],[141.501011,43.004319],[141.5007385,43.004502],[141.5005398,43.0046547],[141.5003173,43.0048452],[141.5001559,43.005029],[141.5000469,43.0051568],[141.499839,43.005418],[141.4997113,43.0056227],[141.4996179,43.0057925],[141.4994858,43.0060387],[141.4993937,43.0062176],[141.4992939,43.0064094],[141.4992248,43.0065031],[141.4989824,43.0066662],[141.4988596,43.0067404],[141.4986271,43.0068671],[141.4984995,43.0069289],[141.4983959,43.0069773],[141.4981097,43.0070774],[141.4979729,43.0071372],[141.4978557,43.0071734],[141.4976821,43.0072412],[141.4975245,43.0072809],[141.497328,43.0073403],[141.4972099,43.0073545],[141.4970265,43.0073697],[141.4966309,43.0073939],[141.4964564,43.0074084],[141.4962527,43.0074217],[141.4958246,43.0074511],[141.4956525,43.0074608],[141.4954221,43.007484],[141.4952167,43.007515],[141.4950252,43.007557],[141.494875,43.0075986],[141.4947182,43.0076472],[141.4946125,43.0076845],[141.4944674,43.0077482],[141.4943139,43.0078199],[141.4941754,43.007901],[141.4941072,43.0079409],[141.4939753,43.0080313],[141.4937703,43.0081991],[141.4936657,43.008306],[141.493534,43.0084594],[141.4933723,43.0087098],[141.4932197,43.0090055],[141.4930379,43.0092556],[141.4928312,43.0094795],[141.4924781,43.0098616],[141.4922753,43.010084],[141.4920964,43.0102084],[141.4918392,43.010358],[141.491574,43.010507],[141.4914482,43.0105564]],[[141.521621,42.9995726],[141.5209721,42.9993952]],[[141.5451613,42.9942013],[141.5451996,42.9942871],[141.5451997,42.9943238],[141.5451893,42.9943559],[141.5451705,42.9943836],[141.5451507,42.9944032],[141.5451159,42.9944217],[141.5450796,42.9944325],[141.5447136,42.9944565],[141.544522,42.9944786],[141.5443451,42.9945018],[141.5441691,42.9945318],[141.5439219,42.9945699],[141.543768,42.9945939],[141.5422898,42.9947371],[141.5418602,42.9947777],[141.5412904,42.9948525],[141.5410106,42.9948988],[141.5409315,42.9948964],[141.5408653,42.994884],[141.5408119,42.9948677],[141.5407525,42.9948509],[141.5407159,42.9948385],[141.5406615,42.9948175],[141.5406211,42.9948074],[141.5405752,42.9947943],[141.5405479,42.9947886],[141.5404965,42.9947892],[141.540412,42.994795],[141.5399687,42.9948214],[141.5396072,42.9948503],[141.5394817,42.9948734],[141.538386,42.995243],[141.5377263,42.9955405],[141.53712,42.9957811],[141.5365087,42.9960553],[141.5353402,42.9965549],[141.5352376,42.9965953],[141.5351017,42.9966468],[141.5349648,42.996698],[141.53484,42.9967424],[141.5323436,42.9975262],[141.5322595,42.9975416],[141.532198,42.9975468],[141.5319075,42.9975499],[141.531758,42.9975925],[141.5316327,42.9976541],[141.5313715,42.9978104],[141.5303464,42.998141],[141.5298006,42.9983122],[141.5292344,42.9984837],[141.5292011,42.9984917],[141.5257967,42.9995439],[141.5254458,42.9996198],[141.5250456,42.9996912],[141.5245823,42.9997588],[141.524229,42.9997889],[141.5238009,42.999803],[141.5233653,42.9998072],[141.5230003,42.9997884],[141.5221884,42.9996816],[141.521621,42.9995726]],[[141.5448577,42.9943891],[141.5448428,42.9942986]],[[141.5449308,42.9947486],[141.5448577,42.9943891]],[[141.5600001,42.9881525],[141.559916,42.9882026],[141.5597982,42.9882729],[141.5593608,42.9885849],[141.558401,42.9892705],[141.5580656,42.9894802],[141.5576668,42.9897668],[141.5568203,42.990417],[141.5555113,42.9913805],[141.5553748,42.9915274],[141.5549055,42.9918699],[141.5543925,42.9922467],[141.5542638,42.9923452],[141.5526771,42.9935344],[141.551941,42.99392],[141.5508939,42.994216],[141.5499976,42.9943328],[141.549156,42.994573],[141.549065,42.994596],[141.5473808,42.9946904],[141.5468665,42.994842],[141.545299,42.9949884],[141.5451548,42.9949832],[141.5450462,42.9949417],[141.5449818,42.9948665],[141.5449308,42.9947486]],[[141.560435,42.9878369],[141.5600001,42.9881525]],[[141.5612395,42.9870385],[141.5611733,42.9871107],[141.5608555,42.9874637],[141.5606394,42.9876697],[141.560435,42.9878369]],[[141.5613157,42.9869555],[141.5612395,42.9870385]],[[141.5617744,42.9863353],[141.5616771,42.9864652],[141.5613694,42.986892],[141.5613157,42.9869555]],[[141.5623017,42.985432],[141.5617744,42.9863353]],[[141.5634076,42.9800262],[141.5632982,42.9803377],[141.5632414,42.9807658],[141.563141,42.9812805],[141.5631149,42.981539],[141.5630455,42.9819177],[141.5630361,42.9819535],[141.5630278,42.982086],[141.5628343,42.9835041],[141.5627914,42.9837498],[141.5626177,42.9844314],[141.5625697,42.9846012],[141.5623017,42.985432]],[[141.5635865,42.9788646],[141.5636132,42.9781228],[141.5636711,42.9777618],[141.5636132,42.9774453],[141.5636785,42.9760883],[141.5637952,42.9753323],[141.563879,42.9748663],[141.5640544,42.9741116],[141.5641277,42.9741076]]]}},{"type":"Feature","id":15443062,"properties":{"osm_relation_id":15443062,"cycle_network":"JP:prefectural","fixme":"滝野側の始点・未開通(未整備)区間・雁来大橋付近の扱いなど","name":"滝野上野幌自転車道線","network":"rcn","official_name":"北海道道814号滝野上野幌自転車道線","ref":"814","route":"bicycle","source":"GSImaps/std","type":"route","wikidata":"Q11403591","wikipedia":"ja:北海道道814号滝野上野幌自転車道線"},"geometry":{"type":"MultiLineString","coordinates":[[[141.345967,42.9751657],[141.3459667,42.9751277],[141.3459732,42.9750926],[141.3460152,42.975023],[141.3460656,42.974959],[141.3461502,42.9748746],[141.3462197,42.9747915],[141.3462672,42.9747094],[141.3462587,42.9746233],[141.3462212,42.9745579],[141.3461662,42.9744794],[141.3460785,42.974331]],[[141.3459713,42.9753262],[141.345967,42.9751657]],[[141.3508856,42.9876063],[141.3508779,42.987518],[141.3508383,42.9874131],[141.3506959,42.9872268],[141.3504782,42.9872806],[141.3503877,42.987203],[141.3502287,42.9870573],[141.3501087,42.9869658],[141.3499955,42.9868764],[141.3498013,42.9867473],[141.3495287,42.9865773],[141.3494074,42.986496],[141.3492743,42.9863557],[141.349168,42.9862052],[141.3490904,42.9860708],[141.3490054,42.9859021],[141.348758,42.9851686],[141.3484512,42.9844325],[141.3484021,42.9842728],[141.3483941,42.9840772],[141.3484268,42.9839188],[141.3485115,42.9837551],[141.3489353,42.9832728],[141.3489876,42.9832229],[141.3490738,42.9831673],[141.3491142,42.9830852],[141.3492156,42.9829515],[141.3494188,42.9826879],[141.3494956,42.9825796],[141.3495512,42.9824824],[141.3496039,42.9823748],[141.3496348,42.9822849],[141.3496673,42.9821836],[141.3496859,42.9820886],[141.3496861,42.9820142],[141.3496831,42.9819392],[141.3496656,42.9818507],[141.3496399,42.9817696],[141.3496085,42.9816957],[141.3494975,42.9815836],[141.3493677,42.9814911],[141.3493119,42.9814445],[141.34925,42.9813862],[141.3481157,42.9804148],[141.3480361,42.9803163],[141.347934,42.9801961],[141.3478136,42.9800734],[141.347694,42.9799571],[141.3475982,42.9798481],[141.3475229,42.9797705],[141.3474378,42.9796536],[141.3473899,42.9795618],[141.347344,42.979434],[141.34731,42.9793259],[141.3472943,42.9792523],[141.3472903,42.9791771],[141.3472805,42.979074],[141.3472899,42.9789795],[141.3473181,42.9788002],[141.3473438,42.9785513],[141.3473443,42.9784909],[141.3473165,42.9784076],[141.3472795,42.9783394],[141.3472169,42.9782528],[141.3471713,42.9781823],[141.3471175,42.9781203],[141.3470619,42.9780648],[141.3468588,42.9778753],[141.3468047,42.9778244],[141.3467727,42.9777946],[141.3467381,42.9777576],[141.3467075,42.9776733],[141.3464525,42.9770432],[141.346325,42.9767221],[141.3462721,42.9765786],[141.3462009,42.9764197],[141.3461645,42.9763461],[141.3461461,42.9762984],[141.3461134,42.9761896],[141.3460962,42.9761336],[141.3460779,42.9760574],[141.3459846,42.9754855],[141.3459713,42.9753262]],[[141.3511035,42.9881028],[141.3510957,42.9880633],[141.3508856,42.9876063]],[[141.351114,42.9883161],[141.3511035,42.9881028]],[[141.3453142,42.997641],[141.345329,42.9974757],[141.3456036,42.9970928],[141.346427,42.9960121],[141.3464917,42.9959107],[141.3465689,42.9957512],[141.3466242,42.9956686],[141.3467766,42.9955182],[141.3468682,42.9954343],[141.346985,42.9952507],[141.347103,42.9950105],[141.347259,42.9947685],[141.3473346,42.994642],[141.3474342,42.9945113],[141.3475379,42.9944245],[141.3475946,42.9943617],[141.3477134,42.994171],[141.3478431,42.9939419],[141.3479768,42.9936779],[141.3507277,42.9900615],[141.3509423,42.9896723],[141.351071,42.9892642],[141.351114,42.9885736],[141.351114,42.9883161]],[[141.3454245,42.9980416],[141.3454374,42.9979676],[141.3454319,42.997931],[141.3453735,42.997767],[141.3453142,42.997641]],[[141.3452775,42.9984731],[141.3452295,42.9984025],[141.3452228,42.9983656],[141.3452293,42.9983196],[141.3452438,42.9982664],[141.3452793,42.9981974],[141.3453889,42.9980703],[141.3454245,42.9980416]],[[141.3454542,42.9987314],[141.3452775,42.9984731]],[[141.3456035,42.9988564],[141.3455656,42.9988331],[141.3454967,42.9987909],[141.3454542,42.9987314]],[[141.3446397,43.0009216],[141.3446119,43.0008712],[141.3445578,43.0007952],[141.344487,43.0007078],[141.3444003,43.0006212],[141.3443632,43.0005524],[141.3443091,43.0004057],[141.3442732,43.0003194],[141.3442392,43.0002188],[141.3442058,43.0001403],[141.3441985,43.0000836],[141.3442029,43.0000166],[141.3442179,42.999924],[141.3442466,42.9997799],[141.3442613,42.9996299],[141.3442863,42.9994826],[141.3443296,42.9993717],[141.3444538,42.9991102],[141.3445051,42.9990311],[141.3445407,42.9990031],[141.3445845,42.9989872],[141.3451399,42.99893],[141.34519,42.998911],[141.3452309,42.998886],[141.3452607,42.9988808],[141.3453119,42.9988809],[141.3454745,42.9989262],[141.3455262,42.9989248],[141.3455567,42.9989097],[141.3456035,42.9988564]],[[141.3446672,43.000984],[141.3446397,43.0009216]],[[141.3464361,43.0055657],[141.3463933,43.0054652],[141.3463568,43.0053856],[141.3463371,43.0053185],[141.3463169,43.0051806],[141.3463229,43.0048031],[141.3463074,43.0046379],[141.3462345,43.0042713],[141.3462026,43.0041752],[141.3461586,43.0040634],[141.3460663,43.0038847],[141.3458957,43.0036257],[141.3458108,43.0034956],[141.3457043,43.0033074],[141.3455865,43.0030813],[141.3452372,43.0020826],[141.3447807,43.0012841],[141.3447251,43.0011635],[141.3446672,43.000984]],[[141.3445359,43.0059115],[141.3464361,43.0055657]],[[141.3444762,43.0059229],[141.3445359,43.0059115]],[[141.3516299,43.0219542],[141.3517153,43.0220108],[141.3517531,43.0220313],[141.351792,43.0220467],[141.3518307,43.0220529],[141.3518699,43.0220497],[141.3519132,43.0220366],[141.3519472,43.0220134],[141.351968,43.0219928],[141.3519796,43.021963],[141.3519848,43.021934],[141.351988,43.0217608],[141.3519936,43.0214354],[141.3519871,43.0214121],[141.3519436,43.021329],[141.3519394,43.0213092],[141.3519379,43.0211717],[141.3519486,43.0211554],[141.3519832,43.0211392],[141.3520043,43.0211222],[141.3520128,43.021094],[141.3520859,43.0203356],[141.352092,43.0203185],[141.3521455,43.0202697],[141.3521549,43.0202448],[141.3521954,43.0199968],[141.3522873,43.0195472],[141.3525142,43.0185402],[141.3525709,43.0181924],[141.3525967,43.0179942],[141.3526174,43.0177317],[141.3526332,43.0172279],[141.352564,43.0152488],[141.3525304,43.0148893],[141.3525168,43.0148293],[141.352474,43.0147139],[141.3524123,43.0145264],[141.3523208,43.0142443],[141.3521643,43.0137456],[141.351995,43.0131978],[141.3519424,43.0130884],[141.3519152,43.013035],[141.3518595,43.0129284],[141.3518207,43.0128671],[141.3516901,43.012711],[141.3515727,43.0125619],[141.3514851,43.0124372],[141.3513029,43.0121628],[141.3510879,43.0118494],[141.3509432,43.0116603],[141.3507254,43.0114011],[141.3506144,43.0112848],[141.3504315,43.0111109],[141.3502835,43.0109655],[141.3499973,43.0106872],[141.3497627,43.0104769],[141.3496714,43.0104044],[141.3493795,43.01022],[141.3491862,43.010104],[141.3490234,43.0100175],[141.3486437,43.0098235],[141.3474355,43.0091802],[141.3472445,43.0090707],[141.3469982,43.0089034],[141.3468171,43.0087785],[141.3466478,43.008647],[141.3463633,43.0084232],[141.34606,43.0081831],[141.3459045,43.0080491],[141.3457803,43.0079234],[141.3456882,43.0078171],[141.3454542,43.0075021],[141.3453643,43.0073713],[141.3452712,43.0072079],[141.3449394,43.0065803],[141.3447355,43.0063369],[141.3445474,43.0061108],[141.3445303,43.0060838],[141.3444762,43.0059229]],[[141.3515753,43.0219195],[141.3516299,43.0219542]],[[141.3504044,43.0209803],[141.3504501,43.0209575],[141.3505103,43.0210592],[141.3507489,43.0212678],[141.3510007,43.0215045],[141.3511286,43.0216057],[141.3513753,43.0217797],[141.3515753,43.0219195]],[[141.3501829,43.0211158],[141.3504044,43.0209803]],[[141.3557943,43.0376783],[141.3556887,43.0375634],[141.3556423,43.0374969],[141.3556094,43.0374226],[141.3555872,43.0373481],[141.3555771,43.0372686],[141.3556029,43.0366287],[141.3555943,43.0364906],[141.3550965,43.0349913],[141.3550321,43.0347371],[141.3549677,43.0344831],[141.3548819,43.033862],[141.3548303,43.0322385],[141.3548083,43.0315804],[141.354812,43.031523],[141.3548211,43.0314754],[141.3548734,43.0313385],[141.3548901,43.0312677],[141.3548977,43.0312052],[141.3549002,43.031155],[141.3548933,43.0310853],[141.3548801,43.0310162],[141.3548598,43.030952],[141.3545391,43.0301066],[141.3544341,43.0298454],[141.3543906,43.0297505],[141.3543515,43.0296722],[141.3536061,43.0282707],[141.3531375,43.0269453],[141.3530041,43.026571],[141.3528971,43.0262666],[141.3528538,43.0261359],[141.3525778,43.025002],[141.3525596,43.02498],[141.3525376,43.0249665],[141.3525098,43.0249631],[141.3521195,43.0250147],[141.3520879,43.0250107],[141.3520607,43.025002],[141.3520305,43.0249858],[141.3520126,43.0249663],[141.3520035,43.0249504],[141.3519996,43.024906],[141.3519788,43.0246932],[141.3519478,43.0243609],[141.3519245,43.0241566],[141.3519097,43.0237681],[141.3518937,43.0236255],[141.3518582,43.0234435],[141.3518205,43.0232938],[141.3517514,43.0230973],[141.3516655,43.0229109],[141.3515301,43.0226671],[141.3514567,43.0225583],[141.3513551,43.0224257],[141.3513172,43.0223858],[141.3509465,43.0220223],[141.3500725,43.0211794],[141.3501829,43.0211158]],[[141.3558535,43.0377444],[141.3557943,43.0376783]],[[141.3610233,43.05363],[141.3608021,43.0533251],[141.3607006,43.0530723],[141.3601495,43.0515377],[141.360057,43.05128],[141.3600138,43.0511598],[141.3599134,43.0508906],[141.3598649,43.0507559],[141.3597664,43.0504824],[141.3595818,43.0499699],[141.3595767,43.0499561],[141.3594766,43.0496863],[141.359439,43.0496008],[141.3592556,43.0492568],[141.3592344,43.049217],[141.359239,43.0491619],[141.3592637,43.0490713],[141.3592928,43.0490292],[141.3593533,43.0489663],[141.3597284,43.0487558],[141.3599021,43.0486574],[141.3599924,43.0485979],[141.3600324,43.0485564],[141.3600458,43.048535],[141.3600601,43.0485122],[141.3600719,43.0484769],[141.3600753,43.0483966],[141.3600523,43.0483259],[141.3598086,43.0475938],[141.3595511,43.0470293],[141.3594567,43.0464961],[141.3594138,43.0463079],[141.3590312,43.0457145],[141.3589245,43.045549],[141.3589233,43.0455126],[141.3589182,43.0453601],[141.3589466,43.0450593],[141.3589292,43.0448621],[141.3588652,43.0444335],[141.3588178,43.044379],[141.3588122,43.0443233],[141.3587647,43.0439674],[141.3587572,43.0438656],[141.3587644,43.0438085],[141.3587937,43.0437559],[141.3588454,43.0436916],[141.3588606,43.0436726],[141.3589208,43.0436134],[141.3590085,43.0435243],[141.3590382,43.0434654],[141.3590339,43.0434049],[141.3590285,43.0433746],[141.3590191,43.0433201],[141.3589324,43.0428028],[141.3588629,43.0425752],[141.3586754,43.0421987],[141.3583136,43.0414992],[141.3580807,43.0410488],[141.3580117,43.0409319],[141.3579324,43.0408667],[141.357906,43.0408554],[141.3577259,43.0407785],[141.3576665,43.0407331],[141.3576009,43.0406608],[141.3573614,43.0401568],[141.3571746,43.0397639],[141.3570589,43.0395098],[141.3569526,43.0392853],[141.3568802,43.0391345],[141.3567128,43.0388249],[141.3565129,43.0385249],[141.3563757,43.0383445],[141.3562812,43.0382258],[141.356075,43.0379837],[141.3558535,43.0377444]],[[141.3610233,43.05363],[141.3612463,43.0538777],[141.3614051,43.054054],[141.3615853,43.0542171],[141.3617827,43.0543864],[141.3619629,43.0545307],[141.3622033,43.0546937],[141.3624264,43.054838],[141.3626582,43.054976],[141.3629243,43.0550951],[141.3631424,43.0552734],[141.3635657,43.0556385],[141.3638566,43.0558894],[141.3643985,43.0563627],[141.3648795,43.0567829],[141.3650193,43.0569053],[141.3652242,43.0571159],[141.3654786,43.0574595],[141.3656291,43.0576943],[141.3657371,43.057878],[141.3658364,43.0579751],[141.3661855,43.058258],[141.3662552,43.0583191],[141.3664508,43.0585153],[141.3667018,43.0588267],[141.3679692,43.0604814],[141.3680362,43.0606021],[141.3680773,43.0608325],[141.3681107,43.0608952],[141.3682939,43.0610994],[141.3687273,43.0616713],[141.3688061,43.0617745],[141.368825,43.0618237],[141.3688394,43.0618612],[141.3688532,43.0619351],[141.3689001,43.0620116],[141.3689839,43.0620688],[141.3696399,43.0623521],[141.3707265,43.0628212],[141.371481,43.063126],[141.3719892,43.0633238],[141.3726144,43.063538],[141.3731216,43.0637121],[141.3735046,43.0638277],[141.3739022,43.0639389],[141.3748976,43.0642259],[141.375713,43.064414],[141.3769318,43.0647966],[141.377155,43.0647903],[141.3773781,43.0648655],[141.3790948,43.0653923],[141.3797471,43.0656431],[141.3801762,43.0657309],[141.3806721,43.065867],[141.3809091,43.0659359],[141.3811574,43.0659841],[141.3821497,43.0662876],[141.3823581,43.0663626],[141.3829267,43.0665321],[141.384748,43.0670898],[141.3850852,43.0672468],[141.3856843,43.0673664],[141.3862616,43.067543],[141.3874804,43.0679882],[141.3889653,43.0687281],[141.3900982,43.0694053],[141.3907849,43.0696686],[141.3913514,43.0698254],[141.3917977,43.0699383],[141.3922526,43.0700323],[141.3926303,43.0700762],[141.3930165,43.070095],[141.3933341,43.0700825],[141.3936173,43.0700699],[141.3939177,43.0700386],[141.3946988,43.0699445],[141.3957631,43.0698317],[141.3959176,43.0698317],[141.3959948,43.0698944],[141.3958918,43.0699383],[141.3956343,43.0699822],[141.3954369,43.070026],[141.3953669,43.0700482],[141.3952395,43.0700887],[141.3950678,43.0701828],[141.3963725,43.070164],[141.3968617,43.0702455],[141.3973424,43.0703458],[141.3979933,43.0705273],[141.3984988,43.0708169],[141.3987414,43.0709357],[141.3987862,43.0709533],[141.399288,43.0711499],[141.4000804,43.0716876],[141.4006812,43.0722017],[141.4011704,43.0728036],[141.4015652,43.0733178],[141.4015846,43.0733689],[141.4017369,43.0737692],[141.4018333,43.0738997],[141.4024149,43.0746865],[141.4026787,43.0750899],[141.4028956,43.07523],[141.4041831,43.0765905],[141.4042587,43.076657],[141.4052282,43.0774638],[141.4087063,43.079374],[141.4106804,43.0803771],[141.4107689,43.0804288],[141.4129804,43.08172],[141.4199244,43.0857745],[141.4206368,43.0863575],[141.4236151,43.0880499],[141.4245593,43.0883007],[141.4248521,43.088365],[141.4257668,43.0885658],[141.427014,43.0888397],[141.4272854,43.0889163],[141.4281238,43.0891438],[141.4302914,43.0898021],[141.4306047,43.089926],[141.4324814,43.0907327],[141.4329707,43.0911526],[141.4337689,43.0917167],[141.4339626,43.0918492],[141.4346407,43.0924572],[141.4352247,43.0930397],[141.4354561,43.0934976],[141.4359647,43.0941428],[141.4361205,43.0943095],[141.4364259,43.0946697],[141.4373615,43.0956913],[141.4374746,43.0958046],[141.4375953,43.0958908],[141.4376877,43.0960046],[141.4375819,43.0959858],[141.4370307,43.0956401],[141.4369449,43.0955901],[141.4367787,43.0956643]],[[141.4423193,43.0957133],[141.4423899,43.0956983],[141.4427928,43.0954875],[141.4431046,43.0953512]],[[141.4431046,43.0953512],[141.4433943,43.0952087]],[[141.4433943,43.0952087],[141.4437163,43.0950684],[141.4442323,43.0949199],[141.4444568,43.094859],[141.4444875,43.0948498],[141.4455646,43.0945277],[141.4460409,43.0944332],[141.446095,43.0943542],[141.4461264,43.0942834],[141.446197,43.0941957]],[[141.4580766,43.0944239],[141.4575643,43.0946615],[141.457467,43.0946721],[141.4573761,43.0946652],[141.4561749,43.0933596],[141.4559791,43.0931557],[141.4558768,43.0930617],[141.4556317,43.0928966],[141.4555421,43.0928532],[141.4550242,43.0926411],[141.4543649,43.0923874],[141.4538141,43.0921734],[141.4536297,43.0921199],[141.4533405,43.0920572],[141.4530664,43.0920341],[141.4524854,43.0920074],[141.4521658,43.0920083],[141.4519473,43.0920295],[141.451725,43.0920692],[141.4508598,43.0922509],[141.4500615,43.0924363],[141.4494552,43.0926198],[141.4484814,43.0929851],[141.4478043,43.0932775],[141.4469454,43.0937175],[141.4461952,43.0941242],[141.446197,43.0941957]],[[141.4583442,43.0942995],[141.4580766,43.0944239]],[[141.4691501,43.0912433],[141.4691068,43.0912582],[141.4676993,43.0916689],[141.4673025,43.0917818],[141.4667736,43.0919323],[141.465843,43.0921864],[141.4610832,43.093521],[141.4599383,43.0938475],[141.4598371,43.093876],[141.4594393,43.0939868],[141.4585837,43.0942161],[141.4584517,43.0942478],[141.4583442,43.0942995]],[[141.4702439,43.0909388],[141.4691501,43.0912433]],[[141.4756114,43.0894367],[141.4754825,43.0894708],[141.4746849,43.0897083],[141.4746242,43.0897245],[141.4743411,43.0898041],[141.4741746,43.0898504],[141.472518,43.0903185],[141.4711552,43.0906939],[141.4703146,43.0909151],[141.4702439,43.0909388]],[[141.4756114,43.0894367],[141.4756207,43.089395]],[[141.4756543,43.0893905],[141.4756207,43.089395]],[[141.4768081,43.0890668],[141.4756543,43.0893905]],[[141.4769123,43.0890415],[141.476891,43.0890467],[141.4768081,43.0890668]],[[141.4769123,43.0890415],[141.476923,43.0886411],[141.477166,43.08578],[141.4775141,43.0818832],[141.4776517,43.080547],[141.4776651,43.0803147],[141.4776355,43.0800943],[141.4775734,43.0798642],[141.4774683,43.079589],[141.4773046,43.0792907],[141.4770343,43.0787216],[141.4769849,43.0785084],[141.4769514,43.0784362]],[[141.4769514,43.0784362],[141.4769024,43.0783308],[141.4768501,43.0782242],[141.4768175,43.0781828]],[[141.4768175,43.0781828],[141.4766437,43.0779624],[141.4763316,43.0773734],[141.4760551,43.0769272],[141.4752434,43.0754003],[141.4746758,43.0743086],[141.4736324,43.0723398]],[[141.4736324,43.0723398],[141.4733402,43.0717662],[141.4728115,43.0707824],[141.4718583,43.0689967]],[[141.4718583,43.0689967],[141.4719142,43.0689779],[141.4719397,43.0689622],[141.4719799,43.0689456],[141.4720148,43.0689328],[141.472055,43.0689309],[141.4721087,43.068926],[141.4721489,43.0689152],[141.4724283,43.0686741]],[[141.4765646,43.0655032],[141.4740934,43.0674055],[141.4724283,43.0686741]],[[141.4789632,43.0636605],[141.4788526,43.0637557],[141.4786866,43.0638814],[141.4781475,43.0642894],[141.4777151,43.0646166],[141.4772682,43.0649548],[141.4766734,43.0654017],[141.4765646,43.0655032]],[[141.4789632,43.0636605],[141.4790894,43.0635681],[141.4796664,43.0631255],[141.4807309,43.0623144],[141.4810567,43.0620674],[141.4819423,43.061394],[141.4822017,43.061175],[141.482282,43.0611133]],[[141.482282,43.0611133],[141.4826689,43.0608161],[141.482955,43.0606067]],[[141.483059,43.0605695],[141.482955,43.0606067]],[[141.4832947,43.0605011],[141.483059,43.0605695]],[[141.4842543,43.0606739],[141.4842585,43.0607097],[141.484136,43.0607233],[141.4839197,43.0607391],[141.4835938,43.0607527],[141.4835533,43.0607194],[141.4834167,43.0604791],[141.4832947,43.0605011]],[[141.4845274,43.060629],[141.4843934,43.060651],[141.4842543,43.0606739]],[[141.4845274,43.060629],[141.4844868,43.0604234],[141.4844356,43.0600956],[141.4844238,43.0600603],[141.4843826,43.0596112],[141.4843756,43.0595235],[141.4843685,43.0593626],[141.4843779,43.0589849],[141.4844014,43.0586924],[141.4844054,43.058663],[141.4844191,43.0585637],[141.4844462,43.0584962],[141.4844674,43.0583439],[141.4844686,43.0583155],[141.4844832,43.0582438],[141.4845122,43.0581052],[141.4845817,43.0578691],[141.4848103,43.0571999],[141.4849308,43.0568577],[141.4850646,43.0565003],[141.4851775,43.0561812],[141.4852619,43.055955],[141.4853845,43.0555968],[141.4855022,43.0552738],[141.4855402,43.0551539],[141.4855693,43.055034],[141.4856145,43.0548251],[141.4856455,43.0547371],[141.4856606,43.0546577],[141.4856651,43.0546228],[141.4856673,43.0545971]],[[141.4856673,43.0545971],[141.4856729,43.0545322],[141.4856788,43.054464]],[[141.4856788,43.054464],[141.4856808,43.0544408]],[[141.4856808,43.0544408],[141.4856612,43.0543918],[141.4856634,43.0543322],[141.4856682,43.0542273],[141.4856667,43.0541257],[141.4856931,43.0540686],[141.4856746,43.0538303],[141.48564,43.053747],[141.4856172,43.05363],[141.4855777,43.0534387],[141.4855547,43.0533394],[141.4854993,43.0531311],[141.4854936,43.0531005],[141.4855015,43.0530758]],[[141.4855015,43.0530758],[141.4854823,43.0530265],[141.4854584,43.0529605]],[[141.4854584,43.0529605],[141.4854341,43.0529452],[141.4852932,43.052634],[141.4852653,43.0525828],[141.4851499,43.0523557],[141.4850925,43.0522987],[141.4848967,43.051941]],[[141.4848967,43.051941],[141.4848413,43.05186],[141.4846941,43.0516846],[141.4845966,43.0515684]],[[141.4845966,43.0515684],[141.484599,43.0514971],[141.4854634,43.0510583],[141.4856973,43.0509235],[141.485965,43.0507526],[141.4862423,43.0505482],[141.4864484,43.0503729],[141.4865425,43.0502843],[141.4865897,43.0502381],[141.4866492,43.0501769],[141.4867836,43.0500337],[141.4869391,43.0498443],[141.4870947,43.0496223],[141.4872152,43.0494099],[141.4872924,43.0492593],[141.4873192,43.0492119],[141.4873539,43.0491271],[141.4874805,43.0488143],[141.4876396,43.0484443],[141.4877361,43.0482346],[141.4878242,43.048079],[141.4878898,43.0479716],[141.4881034,43.0476838],[141.4881541,43.047626],[141.4882231,43.0475413],[141.4889144,43.0468267],[141.4895712,43.0461501],[141.4897169,43.0460012],[141.489772,43.0459554],[141.4898588,43.0458488],[141.4907143,43.0449845],[141.4907507,43.0449479],[141.4908434,43.0448433],[141.49126,43.0444125],[141.4914057,43.0442771],[141.4916649,43.0440426],[141.4918661,43.0438802],[141.4919674,43.043799],[141.4921143,43.043688],[141.4923748,43.0435012],[141.4925846,43.043365],[141.4927846,43.0432396],[141.4936451,43.0427488],[141.4937471,43.0426925],[141.4938167,43.0426504],[141.4946055,43.0421921],[141.4948142,43.042064],[141.4949833,43.0419512],[141.4951376,43.0418375],[141.4953438,43.0416589],[141.4954783,43.0415253],[141.4956475,43.0413349],[141.4958153,43.0411193],[141.4958548,43.0410627],[141.4959042,43.0409849],[141.4960289,43.0407683],[141.4961005,43.0406077],[141.4961598,43.0404516],[141.4962166,43.0402631],[141.4962474,43.0400871],[141.4963008,43.0398846],[141.4963209,43.039783],[141.4963634,43.0397563],[141.4963742,43.0396652],[141.4963752,43.0396166],[141.4963289,43.0395593],[141.4963434,43.0394083]],[[141.4963434,43.0394083],[141.4964003,43.039388],[141.4965872,43.0387425],[141.4966609,43.0385925],[141.4969448,43.0383677],[141.4972965,43.0381399],[141.4973335,43.0381147],[141.4975492,43.0379626],[141.4977604,43.0373559],[141.4979175,43.0367463],[141.4980943,43.0363722],[141.4986566,43.035478],[141.4987306,43.0351022],[141.4987339,43.0347069],[141.498756,43.0342507],[141.4988167,43.0338632],[141.4989603,43.033298],[141.4989217,43.0329306],[141.4990045,43.032531],[141.4992254,43.0319335],[141.4994464,43.0312673],[141.4996894,43.0308159],[141.4998852,43.0305397],[141.5004209,43.0300068],[141.5008517,43.0296192],[141.5012324,43.0293007],[141.5019012,43.0287848],[141.5020274,43.0286632],[141.5020778,43.0285372],[141.502159,43.0283751]],[[141.502159,43.0283751],[141.5022095,43.0283266],[141.5037483,43.026963],[141.5038434,43.0268628],[141.5039829,43.026713],[141.5041767,43.0264703],[141.5042866,43.0262943],[141.5044569,43.0259351],[141.5045322,43.0257329],[141.5045668,43.0256436],[141.5046112,43.0255245],[141.5046507,43.0254017],[141.5046841,43.0252817],[141.5047038,43.0251571],[141.5048409,43.0237041],[141.5048471,43.0236589],[141.5049093,43.0228931],[141.5049875,43.0222959],[141.5049824,43.0222543],[141.504954,43.0222164],[141.5048788,43.0221665],[141.5048187,43.0221448],[141.5047587,43.0221323],[141.5047189,43.022131],[141.5036197,43.0220501],[141.5034832,43.0220418],[141.5032835,43.0220399],[141.5031056,43.0220493],[141.5028929,43.0220677],[141.5027804,43.0220889],[141.5026436,43.0221209],[141.5025554,43.0221416],[141.5023455,43.0221795],[141.5021964,43.0222109],[141.5019499,43.0222719],[141.5017679,43.022331],[141.501491,43.0224327],[141.5010119,43.0226314],[141.5006504,43.0227839],[141.5004178,43.0228791],[141.5003119,43.0229235]],[[141.5003119,43.0229235],[141.4997648,43.0230619],[141.4990566,43.0232449],[141.4982368,43.0234152],[141.49787,43.0234531],[141.4975032,43.0234909],[141.4966575,43.0235162],[141.4960448,43.0235729],[141.4955721,43.0236514]],[[141.4955721,43.0236514],[141.4953122,43.0236604],[141.49489,43.0236581],[141.4948233,43.0236536]],[[141.4948233,43.0236536],[141.4946442,43.0236415],[141.4945021,43.0236312],[141.4944826,43.0236297]],[[141.4944826,43.0236297],[141.4944286,43.0236258],[141.4942403,43.0236054],[141.4939748,43.0235712],[141.4916957,43.0233097],[141.4913645,43.0232764],[141.4910788,43.0232459],[141.4908071,43.0232256],[141.4904316,43.0232099],[141.4900928,43.0232118],[141.4897819,43.0232275],[141.4893344,43.0232644],[141.4887592,43.0233522],[141.4882144,43.0234444],[141.4880918,43.0234613],[141.4873858,43.0235814]],[[141.4873858,43.0235814],[141.4872216,43.0236034],[141.4871057,43.0236206],[141.4869978,43.0236419],[141.486915,43.0236978],[141.4866519,43.0237437],[141.4865509,43.0237681],[141.4859733,43.023856],[141.4850441,43.0240139],[141.4849853,43.0240111],[141.4849164,43.0239635],[141.4849436,43.0237764],[141.4851099,43.0225796],[141.4851023,43.0222867],[141.4850897,43.0222111],[141.4850049,43.0219937],[141.4848988,43.0218181],[141.4847218,43.021612],[141.4845246,43.0213671],[141.4844892,43.021296],[141.4844679,43.0212422],[141.4844437,43.0211601],[141.4844222,43.0210409],[141.4844336,43.0209115],[141.4844614,43.0207775],[141.4846308,43.0203413],[141.4846438,43.0203134],[141.4846763,43.0202286],[141.4848646,43.0198275],[141.4850087,43.0195641],[141.4850426,43.0195234],[141.4850707,43.0194532],[141.4853159,43.0190622],[141.4854992,43.0187813],[141.4855687,43.0187129],[141.4856838,43.0186864]]]}}]}
