{
"type": "FeatureCollection",
"name": "sapporo-cyclingroad",
"crs": { "type": "name", "properties": { "name": "urn:ogc:def:crs:OGC:1.3:CRS84" } },
"features": [
{ "type": "Feature", "properties": { "fid": 1, "name": "真駒内茨戸東雁来自転車道路（手稲区）", "ward": "手稲区", "road_type": "exclusive", "source": "sapporo_map_2024" }, "geometry": { "type": "LineString", "coordinates": [ [ 141.352659496977026, 43.162724988474565 ], [ 141.348864799563898, 43.158813693543436 ], [ 141.346554983747126, 43.157971228016159 ], [ 141.344162674508425, 43.157008396047438 ], [ 141.341192911315545, 43.154240169627897 ], [ 141.337315720480348, 43.152073644088112 ], [ 141.330798740140409, 43.148282039582831 ], [ 141.32898388485583, 43.147619989279569 ], [ 141.326426588773046, 43.147680175967082 ], [ 141.326344095351033, 43.146656994219647 ], [ 141.325106694020661, 43.146656994219647 ], [ 141.325106694020661, 43.147439428861446 ], [ 141.319249661056887, 43.146536618770455 ], [ 141.316692364974102, 43.146356055152182 ], [ 141.315702443909771, 43.143587346217188 ], [ 141.309350450413888, 43.144369820149599 ], [ 141.3009361213673, 43.139554437129377 ], [ 141.300111187147053, 43.139373852888092 ], [ 141.297388904220213, 43.139193268113438 ], [ 141.294089167339223, 43.137628177725205 ], [ 141.289304548861793, 43.136183443348777 ], [ 141.277837963200312, 43.14400867957913 ], [ 141.263154134079798, 43.13263165957401 ], [ 141.263071640657785, 43.132210247809915 ], [ 141.265463949896542, 43.130765385431125 ], [ 141.265463949896542, 43.128357205613867 ], [ 141.266618857804872, 43.128658233276241 ], [ 141.266536364382887, 43.129922533280364 ], [ 141.292026831788604, 43.111316625008016 ] ] } },
{ "type": "Feature", "properties": { "fid": 2, "name": "真駒内茨戸東雁来自転車道路（西区）", "ward": "西区", "road_type": "exclusive", "source": "sapporo_map_2024" }, "geometry": { "type": "LineString", "coordinates": [ [ 141.28282881523279, 43.070773496405472 ], [ 141.281096453370282, 43.068423220513253 ], [ 141.280106532305979, 43.066916586001781 ], [ 141.278456663865455, 43.063360781730637 ], [ 141.277549236223194, 43.061612937925673 ], [ 141.276641808580905, 43.061010221611504 ], [ 141.275816874360686, 43.060588316666205 ], [ 141.274661966452328, 43.060166408817636 ], [ 141.27383703223208, 43.060286954213474 ], [ 141.272764617745736, 43.060467771862861 ], [ 141.271609709837378, 43.060528044294152 ], [ 141.270289815084965, 43.06004586318479 ], [ 141.269299894020691, 43.059985590279481 ], [ 141.268062492690291, 43.060226681545181 ], [ 141.265917663717602, 43.060829405561883 ], [ 141.26443278212119, 43.061311580509219 ], [ 141.26294790052475, 43.0617334804775 ], [ 141.260060630753884, 43.061673209231209 ], [ 141.258740736001471, 43.061311580509219 ], [ 141.257008374138934, 43.060889677637682 ], [ 141.255770972808591, 43.060588316666205 ], [ 141.252388742505559, 43.060467771862861 ], [ 141.250738874065064, 43.060347226822529 ], [ 141.249418979312651, 43.059684224864249 ], [ 141.248594045092403, 43.058840393821328 ], [ 141.246201735853646, 43.05847874839079 ], [ 141.244386880569124, 43.058117100827261 ], [ 141.242572025284545, 43.057634900757883 ], [ 141.241087143688077, 43.057212972586569 ], [ 141.239519768669652, 43.056610213019873 ], [ 141.238199873917239, 43.055766339672573 ], [ 141.236797485742812, 43.054922454712361 ] ] } },
{ "type": "Feature", "properties": { "fid": 3, "name": "真駒内茨戸東雁来自転車道路（東区）", "ward": "東区", "road_type": "exclusive", "source": "sapporo_map_2024" }, "geometry": { "type": "LineString", "coordinates": [ [ 141.438535149305096, 43.155052596904063 ], [ 141.445134623067133, 43.151321360311648 ], [ 141.447774412571903, 43.148793618996706 ], [ 141.450579188920784, 43.14241361654004 ], [ 141.453053991581527, 43.13410657788134 ], [ 141.453383965269609, 43.128688335961002 ], [ 141.453053991581527, 43.123871717955147 ], [ 141.449259294168314, 43.113996465394436 ], [ 141.446949478351684, 43.107974187727734 ], [ 141.443402261204596, 43.102674093208535 ], [ 141.443237274360541, 43.101529694385178 ], [ 141.439937537479551, 43.097433775949312 ], [ 141.437957695350946, 43.095144761012357 ] ] } },
{ "type": "Feature", "properties": { "fid": 4, "name": "澄川１号用水路自転車道路", "ward": "豊平区", "road_type": "exclusive", "source": "sapporo_map_2024" }, "geometry": { "type": "LineString", "coordinates": [ [ 141.362723694464052, 43.021851107603865 ], [ 141.363961095794451, 43.020946444804778 ], [ 141.362311227353956, 43.019860831850217 ], [ 141.361651279977764, 43.019137079216513 ], [ 141.36123881286764, 43.01829269036137 ], [ 141.361321306289682, 43.017749862822726 ], [ 141.361486293133709, 43.016362615088781 ], [ 141.361898760243832, 43.015638821221138 ], [ 141.361733773399806, 43.014673749460329 ], [ 141.360661358913433, 43.012743560439553 ], [ 141.360743852335503, 43.011718122847363 ], [ 141.360991332601515, 43.011235558056114 ] ] } },
{ "type": "Feature", "properties": { "fid": 5, "name": "北白石サイクリングロード", "ward": "白石区", "road_type": "exclusive", "source": "sapporo_map_2024" }, "geometry": { "type": "LineString", "coordinates": [ [ 141.417581820110712, 43.067037118125455 ], [ 141.417581820110712, 43.065922186938074 ], [ 141.416798132601457, 43.064234684946967 ], [ 141.416550652335417, 43.063812802190959 ], [ 141.416468158913403, 43.062848487846544 ], [ 141.417210599711581, 43.062366324986279 ], [ 141.420386596459593, 43.060618452829992 ], [ 141.422943892542349, 43.059262310794402 ], [ 141.423727580051576, 43.058749982663656 ], [ 141.424470020849839, 43.057815726228263 ], [ 141.426119889290305, 43.054590925300737 ], [ 141.426119889290305, 43.05425939409681 ], [ 141.425294955070058, 43.053536047067091 ], [ 141.42541869520312, 43.053294929494534 ], [ 141.427151057065657, 43.052029046685746 ], [ 141.427563524175781, 43.051727642165801 ], [ 141.427728511019836, 43.050702855718413 ], [ 141.428099731418911, 43.050190456073629 ], [ 141.42987333999244, 43.048351810345331 ] ] } },
{ "type": "Feature", "properties": { "fid": 6, "name": "もみじ台自転車道路", "ward": "厚別区", "road_type": "exclusive", "source": "sapporo_map_2024" }, "geometry": { "type": "LineString", "coordinates": [ [ 141.484690218928108, 43.03870555276341 ], [ 141.483494064308729, 43.038042316832303 ], [ 141.483617804441764, 43.036143010643897 ], [ 141.483947778129874, 43.035540044004648 ], [ 141.484978945905169, 43.034153198250259 ], [ 141.484978945905169, 43.033429614110553 ], [ 141.484978945905169, 43.032314071846947 ], [ 141.485308919593251, 43.031771368278875 ], [ 141.486835047900769, 43.030233682108459 ], [ 141.487000034744796, 43.03002262413716 ], [ 141.486546320923679, 43.029570354611899 ], [ 141.486587567634643, 43.028545198016708 ], [ 141.486876294611761, 43.026464680529422 ], [ 141.487371255143898, 43.025801312301489 ], [ 141.487082528166837, 43.025137936904883 ], [ 141.487041281455816, 43.023087458538278 ], [ 141.487701228832009, 43.022635137913873 ], [ 141.48831992949718, 43.022604983087106 ] ] } },
{ "type": "Feature", "properties": { "fid": 7, "name": "伏古大通自転車道路", "ward": "東区", "road_type": "exclusive", "source": "sapporo_map_2024" }, "geometry": { "type": "LineString", "coordinates": [ [ 141.388544135557936, 43.092524336244942 ], [ 141.389039096090073, 43.091138778983911 ], [ 141.389039096090073, 43.090174894575782 ], [ 141.388709122401991, 43.089210994998545 ], [ 141.385491878942986, 43.086138463860443 ], [ 141.384419464456698, 43.084933507618395 ], [ 141.383017076282272, 43.083065778603242 ] ] } },
{ "type": "Feature", "properties": { "fid": 8, "name": "豊平川サイクリング園路", "ward": "豊平区", "road_type": "exclusive", "source": "sapporo_map_2024" }, "geometry": { "type": "LineString", "coordinates": [ [ 141.410157412128456, 43.077884038716341 ], [ 141.408672530532044, 43.077221226421742 ], [ 141.407105155513563, 43.076377636768505 ], [ 141.405620273917123, 43.075353262290839 ], [ 141.404465366008736, 43.074268611826483 ], [ 141.403722925210559, 43.073424981526188 ], [ 141.403227964678393, 43.072521079031397 ], [ 141.402320537036104, 43.071376116732964 ], [ 141.401495602815857, 43.070532446615395 ], [ 141.399928227797375, 43.069749028250413 ], [ 141.398525839622948, 43.069086127966536 ], [ 141.39704095802648, 43.068664278598504 ], [ 141.395308596163972, 43.068604014166063 ], [ 141.393328754035366, 43.068784807285631 ], [ 141.392421326393105, 43.068845071540302 ], [ 141.391101431640692, 43.068362955843796 ], [ 141.389616550044252, 43.067458978691974 ], [ 141.387966681603729, 43.06685631985102 ], [ 141.386151826319178, 43.066374188512192 ], [ 141.384006997346546, 43.065650984393805 ], [ 141.381862168373857, 43.065289379135073 ], [ 141.379222378869059, 43.064566162218497 ], [ 141.376665082786303, 43.063601859724216 ], [ 141.372292931418997, 43.062155377542496 ], [ 141.369735635336212, 43.060829405561854 ], [ 141.368663220849896, 43.059503404904085 ], [ 141.36726083267547, 43.057273248217342 ], [ 141.364373562904575, 43.054741620710011 ], [ 141.363466135262286, 43.05281269150548 ], [ 141.362558707619996, 43.050100032162526 ], [ 141.36115631944557, 43.047628393638931 ], [ 141.360826345757488, 43.046302107518294 ], [ 141.360331385225351, 43.043227424857335 ], [ 141.359918918115227, 43.041358424798624 ], [ 141.35810406283062, 43.038584964945507 ], [ 141.357361622032442, 43.036896710611373 ], [ 141.356619181234208, 43.035087815137132 ], [ 141.356454194390153, 43.031047756056431 ], [ 141.355959233858016, 43.029721111490609 ], [ 141.3548868193717, 43.027972308932434 ], [ 141.354391858839506, 43.027007431020174 ], [ 141.353896898307397, 43.024866553994649 ], [ 141.353525677908294, 43.023012071998977 ], [ 141.353278197642169, 43.02025286096476 ], [ 141.35340193777526, 43.019122000945949 ], [ 141.353835028240894, 43.017674469729506 ], [ 141.354020638440431, 43.017086400425313 ], [ 141.353711288107831, 43.014915018822393 ], [ 141.3533400677087, 43.012426883010441 ], [ 141.351855186112289, 43.010526784144929 ], [ 141.349071033118918, 43.008626626495413 ], [ 141.346658100524706, 43.00740506553646 ], [ 141.345853789659913, 43.005821524433131 ] ] } },
{ "type": "Feature", "properties": { "fid": 9, "name": "屯田みずほ通", "ward": "北区", "road_type": "exclusive", "source": "sapporo_map_2024" }, "geometry": { "type": "LineString", "coordinates": [ [ 141.313866965269739, 43.135129969680321 ], [ 141.346163139992512, 43.131247010016708 ] ] } },
{ "type": "Feature", "properties": { "fid": 10, "name": "滝野上野幌自転車道路（厚別区）", "ward": "厚別区", "road_type": "exclusive", "source": "sapporo_map_2024" }, "geometry": { "type": "LineString", "coordinates": [ [ 141.446392647752987, 43.093804442811972 ], [ 141.449114930679826, 43.092539396477768 ], [ 141.451589733340541, 43.09199722576372 ], [ 141.453755185668712, 43.09199722576372 ], [ 141.45548754753122, 43.09267493840634 ], [ 141.457343649526791, 43.09448213545609 ], [ 141.470088883229636, 43.09091286993678 ], [ 141.487907462387085, 43.085807103256641 ], [ 141.493846988772901, 43.081333559671918 ], [ 141.484659283894842, 43.074826004046322 ], [ 141.479029107841598, 43.063888138610317 ], [ 141.47915284797466, 43.063210107503224 ], [ 141.48422619342918, 43.059684224864249 ], [ 141.484597413828311, 43.058011619886095 ], [ 141.484783024027877, 43.056791041512 ], [ 141.485339854626517, 43.055525230868938 ], [ 141.485649204959117, 43.054123767178645 ], [ 141.48540172469302, 43.0527674814996 ], [ 141.484164323362705, 43.051275532608578 ], [ 141.485855438514193, 43.05061243256273 ], [ 141.486927853000537, 43.04967805214811 ], [ 141.48754655366568, 43.04853266318883 ], [ 141.48845398130797, 43.04717625386489 ], [ 141.489897616193417, 43.045458092329156 ], [ 141.492001198455057, 43.043559015694946 ], [ 141.493156106363386, 43.042775252644972 ], [ 141.495300935336047, 43.041569443785576 ], [ 141.496043376134281, 43.040876092960204 ], [ 141.496414596533413, 43.04000185683833 ], [ 141.496579583377439, 43.038795993471282 ], [ 141.496827063643536, 43.037951875013526 ], [ 141.498518178795024, 43.034906922657001 ], [ 141.498641918928058, 43.03279647098983 ], [ 141.499936034486183, 43.030576649763937 ], [ 141.504473172697573, 43.026317684779016 ], [ 141.505169210945922, 43.021775719546469 ], [ 141.502127266008728, 43.02166263728671 ], [ 141.500064930458109, 43.022510749157952 ], [ 141.49846662040639, 43.023151537023935 ], [ 141.496507401633266, 43.023358849313347 ], [ 141.492949872808452, 43.023094997187158 ], [ 141.489985265454408, 43.022925377364352 ], [ 141.487304229238475, 43.023283463107298 ], [ 141.486144165491254, 43.023754625376412 ], [ 141.484880984966509, 43.023980781981166 ], [ 141.483669362830454, 43.024112706282537 ], [ 141.482535078277635, 43.024395400259401 ], [ 141.481143001780936, 43.024565016020659 ], [ 141.480086054811267, 43.024847707914688 ], [ 141.479183783007898, 43.025036168454179 ], [ 141.478539303148324, 43.025243474379359 ], [ 141.477843264899974, 43.025658084129518 ], [ 141.476863655513398, 43.02616691954114 ], [ 141.476296513236974, 43.026524986376529 ], [ 141.475574695794279, 43.02718457771109 ], [ 141.475471579016755, 43.027504948087739 ] ] } },
{ "type": "Feature", "properties": { "fid": 11, "name": "滝野上野幌自転車道路（南区）", "ward": "南区", "road_type": "exclusive", "source": "sapporo_map_2024" }, "geometry": { "type": "LineString", "coordinates": [ [ 141.437550384079515, 43.095103347125175 ], [ 141.435230256585072, 43.092693763650487 ], [ 141.433219479423173, 43.090961816967734 ], [ 141.431466494205182, 43.089945216756327 ], [ 141.428785457989306, 43.088853294030805 ], [ 141.426723122438744, 43.088363805110809 ], [ 141.424815462054397, 43.08806257921578 ], [ 141.423423385557697, 43.087610737595682 ], [ 141.418731572180064, 43.084937273143616 ], [ 141.409347945424713, 43.079251066431056 ], [ 141.406460675653761, 43.07772586825196 ], [ 141.404681911241312, 43.076605482440186 ], [ 141.402323114955323, 43.074477634503097 ], [ 141.401072824027779, 43.072773419819264 ], [ 141.40014477302995, 43.071417546662843 ], [ 141.399113605254655, 43.070814926742663 ], [ 141.397695749563638, 43.070268797322036 ], [ 141.396174777095013, 43.069816824466265 ], [ 141.393983545572496, 43.069684998422197 ], [ 141.392591469075825, 43.069647333786087 ], [ 141.391199392579125, 43.069402513087283 ], [ 141.389781536888052, 43.068705710361471 ], [ 141.387848097309387, 43.067707573737749 ], [ 141.386224008063266, 43.067029584874689 ], [ 141.384187451706993, 43.066445755122501 ], [ 141.381454857102455, 43.065617083991455 ], [ 141.374758711361523, 43.06369603055802 ], [ 141.370737157037809, 43.062255200976935 ], [ 141.368533035918091, 43.061238124414444 ], [ 141.367643653711866, 43.06033404219437 ], [ 141.366870277880395, 43.058949640458984 ], [ 141.365710214133145, 43.057226157885886 ], [ 141.364511481594349, 43.055898195648609 ], [ 141.363158073889281, 43.054654970894966 ], [ 141.361649991017885, 43.053722535789497 ], [ 141.36052859606221, 43.052281471831506 ], [ 141.359987232980188, 43.050444772608898 ], [ 141.359755220230738, 43.047562456796157 ], [ 141.3591035794839, 43.045860633759993 ], [ 141.35887443108939, 43.04524101610874 ], [ 141.358782771731569, 43.043482607611637 ], [ 141.359080664644438, 43.042862965941204 ], [ 141.358920260768286, 43.042042349772316 ], [ 141.357682859437915, 43.039948891462409 ], [ 141.356132288634996, 43.037265438664541 ], [ 141.355093482579889, 43.035679876031907 ], [ 141.354604632671482, 43.034507426611327 ], [ 141.354535888153123, 43.033602950324408 ], [ 141.354765036547661, 43.032346711144697 ], [ 141.354948355263275, 43.031308200674424 ], [ 141.355017099781634, 43.030437178343107 ], [ 141.354444228795302, 43.029716900539626 ], [ 141.354100506203594, 43.028845855625377 ], [ 141.353619294575083, 43.028092056780125 ], [ 141.352771445515373, 43.027589519073771 ], [ 141.352192845819218, 43.02683361085856 ], [ 141.351952240004977, 43.025866202277918 ], [ 141.352124101300888, 43.02520031478597 ], [ 141.35229596259677, 43.024195187910685 ], [ 141.352347520985518, 43.02368005400875 ], [ 141.351883495486618, 43.022838240524216 ], [ 141.351058561266399, 43.021883333643451 ], [ 141.351419469987746, 43.021556651564048 ], [ 141.352003798393753, 43.021719992821033 ], [ 141.352020984523364, 43.019621652839028 ], [ 141.352656871318118, 43.017598634422917 ], [ 141.352679265365794, 43.015537851484787 ], [ 141.352512611987947, 43.013923294732905 ], [ 141.352200136904543, 43.012750429720413 ], [ 141.351096058276397, 43.011120567123882 ], [ 141.34980449459826, 43.009932415730674 ], [ 141.347804654064305, 43.008774707649714 ], [ 141.345867308547014, 43.007632211177679 ], [ 141.344950714968974, 43.006542165105124 ], [ 141.344672959339249, 43.005709383953736 ], [ 141.344694562554906, 43.005260264229435 ], [ 141.345358089892557, 43.005000721183166 ], [ 141.346228390865605, 43.004971381465474 ], [ 141.346222218518307, 43.004671212779435 ], [ 141.345774723337115, 43.003323820985742 ], [ 141.344762458375499, 43.001500168277907 ], [ 141.344811837154111, 42.999188926677711 ], [ 141.34579941272645, 42.998881958362411 ], [ 141.345280935550988, 42.997455438422072 ], [ 141.348934965168581, 42.992922857831815 ], [ 141.350078906873108, 42.990797907479241 ], [ 141.351017103666805, 42.988895623312082 ], [ 141.351017103666805, 42.987655494971229 ], [ 141.348358879417987, 42.984254043676842 ], [ 141.349609808476202, 42.98208664911013 ], [ 141.347173788731197, 42.979678343307832 ], [ 141.34565950618699, 42.97331996273892 ], [ 141.344671930614624, 42.973223618583212 ], [ 141.343684355042342, 42.97018870042001 ], [ 141.342696779470032, 42.966527330000062 ], [ 141.343289324813384, 42.964022056245589 ], [ 141.343486839927891, 42.960360318769283 ], [ 141.34500112247207, 42.952168801241498 ], [ 141.346690974006947, 42.950915884775327 ], [ 141.34704211198823, 42.946450154534944 ], [ 141.346559297264008, 42.944490271347178 ], [ 141.34489139185294, 42.941341475907471 ], [ 141.344671930614737, 42.939124370260181 ], [ 141.342960132956023, 42.9377747886045 ], [ 141.34238953373648, 42.936039568725832 ], [ 141.341862826764583, 42.9345613798912 ], [ 141.341818934516908, 42.933275969454115 ], [ 141.342652887222442, 42.932536846304082 ], [ 141.345066960843639, 42.931315666882497 ], [ 141.345725344558502, 42.93003018870121 ], [ 141.346866542997617, 42.929258888914376 ], [ 141.349719539095446, 42.929098200243089 ], [ 141.351211875515844, 42.927523429080161 ], [ 141.35380151812771, 42.925402245103072 ], [ 141.354503794090249, 42.923763098365924 ], [ 141.355249962300405, 42.923184565575177 ], [ 141.356654514225482, 42.922863156121693 ], [ 141.357883497159946, 42.922670309644715 ], [ 141.359156372342056, 42.922091766591969 ], [ 141.362448290916433, 42.919391827178742 ], [ 141.363106674631297, 42.918941825773786 ], [ 141.365740209490781, 42.919231112768529 ], [ 141.369251589303474, 42.919359684330239 ], [ 141.373377460583384, 42.919198969836188 ], [ 141.375308719480358, 42.919263255684108 ], [ 141.378337284568744, 42.92035610483687 ], [ 141.379917405484463, 42.920998948225026 ], [ 141.381760879886144, 42.921031090218364 ], [ 141.382711878585383, 42.92234889750835 ], [ 141.384335891748691, 42.923034574705554 ], [ 141.385916012664438, 42.923409551194922 ] ] } },
{ "type": "Feature", "properties": { "fid": 12, "name": "札幌恵庭自転車道路", "ward": "清田区", "road_type": "exclusive", "source": "sapporo_map_2024" }, "geometry": { "type": "LineString", "coordinates": [ [ 141.386883051212095, 43.057577494326843 ], [ 141.382040905012332, 43.053707683425309 ], [ 141.380880807485312, 43.052823120930661 ], [ 141.38083036846237, 43.050832808669497 ], [ 141.38148607576025, 43.049063587991803 ], [ 141.382847929378926, 43.048068378933756 ], [ 141.384915929318453, 43.047441757539062 ], [ 141.38980851454113, 43.045561854947152 ], [ 141.393894075397185, 43.044050518932131 ], [ 141.402014758086381, 43.040880278526664 ], [ 141.411446855371366, 43.037341212017751 ], [ 141.420904172167781, 43.033820375610603 ], [ 141.434710632244816, 43.028676499862065 ], [ 141.443041084350341, 43.02561142753887 ], [ 141.444365129718108, 43.025409772678252 ], [ 141.445468500857885, 43.025490434701986 ], [ 141.447289063238571, 43.025974404618673 ], [ 141.449550974075152, 43.02617605762449 ], [ 141.452971424608535, 43.026861672889325 ], [ 141.455288504002112, 43.027305302215424 ], [ 141.459315808662382, 43.027869916720711 ], [ 141.462901764866757, 43.028595842024878 ], [ 141.469632328819529, 43.028555513066543 ], [ 141.472114913884042, 43.027748928335363 ], [ 141.476749072671254, 43.025167785971099 ], [ 141.482045254142292, 43.022142871647027 ], [ 141.483014496727918, 43.021158860097877 ], [ 141.48349049793373, 43.020462845480502 ], [ 141.484009771976389, 43.018406392562639 ], [ 141.485005047224803, 43.016001837190025 ], [ 141.485827231125739, 43.014293280100617 ], [ 141.48686577921103, 43.013043472126455 ], [ 141.489267421658411, 43.01171453448142 ], [ 141.491604154850393, 43.010575422183891 ], [ 141.492642702935711, 43.009578681592927 ], [ 141.494005797297746, 43.007917411329728 ], [ 141.495174163893722, 43.007442754430464 ], [ 141.497186350809102, 43.007252890643777 ], [ 141.498289808149735, 43.006778228609562 ], [ 141.500042358043714, 43.005259285452276 ], [ 141.501080906129118, 43.004072584977486 ], [ 141.503093093044441, 43.003550429506326 ], [ 141.505819281768453, 43.003075738863174 ], [ 141.507636740917803, 43.002506105249928 ], [ 141.511012022195132, 43.000892114663614 ], [ 141.514517121983118, 42.999752801663227 ], [ 141.517113492196501, 42.999325553841452 ], [ 141.518606405069164, 42.999325553841452 ], [ 141.520683501239859, 42.999657857959583 ], [ 141.521981686346521, 42.999990160280497 ], [ 141.525162239857877, 42.999515442129024 ], [ 141.529316432199181, 42.998376103601004 ], [ 141.537624816881902, 42.995717564878184 ], [ 141.541013916774233, 42.994778484199543 ], [ 141.542922231104257, 42.99442390292355 ], [ 141.544054009944062, 42.994470771715214 ], [ 141.544524784876188, 42.995398319252956 ], [ 141.547067582160253, 42.99521500460223 ], [ 141.550408492391625, 42.994856446497835 ], [ 141.552150475927959, 42.994222014890276 ], [ 141.553835176318302, 42.993281605450818 ], [ 141.558955730897338, 42.98950556299264 ], [ 141.561152918231812, 42.987649220556172 ], [ 141.562258605275616, 42.986494108108808 ], [ 141.562746657904796, 42.985545206693196 ], [ 141.563081040528687, 42.984471464252849 ], [ 141.563673899567135, 42.981086066145828 ], [ 141.564062133331731, 42.978594858583143 ], [ 141.56433963018975, 42.976361962825429 ] ] } },
{ "type": "Feature", "properties": { "fid": 13, "name": "北四条自転車道路", "ward": "中央区", "road_type": "exclusive", "source": "sapporo_map_2024" }, "geometry": { "type": "LineString", "coordinates": [ [ 141.339395669147819, 43.063782816164917 ], [ 141.328730470141267, 43.062195259593985 ] ] } }
]
}
